QIANFAN-57              
1 62787U 25016C   25291.27682547  .00000089  00000+0  11847-3 0  9994
2 62787  88.9745 108.9253 0001252  64.7439 295.3842 13.50975644 39711
QIANFAN-58              
1 62788U 25016D   25291.32205277  .00000095  00000+0  12870-3 0  9996
2 62788  88.9714 108.7694 0014954 138.2299 221.9997 13.50975268 39762
QIANFAN-59              
1 62789U 25016E   25291.27266087  .00000113  00000+0  15635-3 0  9990
2 62789  88.9738 108.8349 0015242 141.9939 218.2291 13.50974616 39751
QIANFAN-60              
1 62790U 25016F   25273.45632892  .00000063  00000+0  77135-4 0  9991
2 62790  88.9732 110.6637 0014892 189.3455 170.7422 13.52524324 37336
QIANFAN-61              
1 62791U 25016G   25291.26440843  .00000104  00000+0  14173-3 0  9992
2 62791  88.9786 108.9430 0015815 138.3309 221.9051 13.50974892 39757
QIANFAN-62              
1 62792U 25016H   25291.26866490  .00000120  00000+0  16689-3 0  9995
2 62792  88.9733 108.8410 0017168 139.0718 221.1725 13.50968877 39747
QIANFAN-63              
1 62793U 25016J   25291.29324672  .00000088  00000+0  11785-3 0  9995
2 62793  88.9739 108.7863 0017119 144.0390 216.1917 13.50971828 39784
QIANFAN-64              
1 62794U 25016K   25291.26031677  .00000094  00000+0  12595-3 0  9990
2 62794  88.9727 108.7712 0015208 136.8842 223.3503 13.50973423 39776
